[{"OBJECT_NAME":"STARLINK-4320","OBJECT_ID":"2022-077S","EPOCH":"2026-03-09T11:34:03.063360","MEAN_MOTION":15.01260038,"ECCENTRICITY":4.368e-5,"INCLINATION":97.6005,"RA_OF_ASC_NODE":250.01,"ARG_OF_PERICENTER":138.228,"MEAN_ANOMALY":221.8978,"EPHEMERIS_TYPE":0,"CLASSIFICATION_TYPE":"U","NORAD_CAT_ID":53059,"ELEMENT_SET_NO":999,"REV_AT_EPOCH":20088,"BSTAR":-2.9316888e-5,"MEAN_MOTION_DOT":-4.35e-6,"MEAN_MOTION_DDOT":0},{"OBJECT_NAME":"PEGASUS DEB","OBJECT_ID":"1994-029EN","EPOCH":"2026-03-09T15:28:18.113376","MEAN_MOTION":15.06103636,"ECCENTRICITY":0.0063203,"INCLINATION":81.992,"RA_OF_ASC_NODE":119.5258,"ARG_OF_PERICENTER":162.6478,"MEAN_ANOMALY":325.8514,"EPHEMERIS_TYPE":0,"CLASSIFICATION_TYPE":"U","NORAD_CAT_ID":24091,"ELEMENT_SET_NO":999,"REV_AT_EPOCH":61530,"BSTAR":0.00036871,"MEAN_MOTION_DOT":5.666e-5,"MEAN_MOTION_DDOT":0}]
